{
  "type": "FeatureCollection",
  "properties": {
    "crs": "WGS-84",
    "generated_by": "ingest/georef.py build_areas()",
    "anchor": {
      "label": "Harappa Museum (OSM building)",
      "lat": 30.6247339,
      "lon": 72.8646927
    },
    "scale_m_per_px": 1.2595041322314051,
    "rotation_deg_east_of_up": 2.96,
    "validation": "village core within 155 m of OSM node; residual consistent with post-1940 eastward growth"
  },
  "features": [
    {
      "type": "Feature",
      "properties": {
        "place_id": "harappa:area:AB",
        "level": "area",
        "parent_id": "harappa",
        "label": "Mound AB",
        "note": "North-south ridge south of F, excavation sections I-IV. 49 seals.",
        "centroid": [
          72.86281189600503,
          30.629669764082948
        ],
        "source": "Vats 1940, Pl. I (1999 ASI reprint scan)",
        "georef_method": "1000-ft grid scale + north-arrow rotation + OSM museum anchor",
        "uncertainty_m": 250
      },
      "geometry": {
        "type": "Polygon",
        "coordinates": [
          [
            [
              72.86175448181237,
              30.631525976875057
            ],
            [
              72.86312398096568,
              30.631728933367658
            ],
            [
              72.8640847266928,
              30.63106403543437
            ],
            [
              72.86430066356752,
              30.629374634829176
            ],
            [
              72.86381078632519,
              30.627936786387252
            ],
            [
              72.86292587294352,
              30.627330774846094
            ],
            [
              72.86208838011335,
              30.627859605976287
            ],
            [
              72.86164278907705,
              30.62953871586002
            ],
            [
              72.86157538254776,
              30.630668413170632
            ],
            [
              72.86175448181237,
              30.631525976875057
            ]
          ]
        ]
      }
    },
    {
      "type": "Feature",
      "properties": {
        "place_id": "harappa:area:B",
        "level": "area",
        "parent_id": "harappa",
        "label": "Mound B",
        "note": "Small mound north of E, near modern grave yards. 16 seals. Approximate box.",
        "centroid": [
          72.86220978280573,
          30.631227801877223
        ],
        "source": "Vats 1940, Pl. I (1999 ASI reprint scan)",
        "georef_method": "1000-ft grid scale + north-arrow rotation + OSM museum anchor",
        "uncertainty_m": 250
      },
      "geometry": {
        "type": "Polygon",
        "coordinates": [
          [
            [
              72.8619466309578,
              30.6313929972884
            ],
            [
              72.86240593928095,
              30.631413578731323
            ],
            [
              72.86247293465367,
              30.63106260646605
            ],
            [
              72.86201362633051,
              30.631042025023124
            ],
            [
              72.8619466309578,
              30.6313929972884
            ]
          ]
        ]
      }
    },
    {
      "type": "Feature",
      "properties": {
        "place_id": "harappa:area:C",
        "level": "area",
        "parent_id": "harappa",
        "label": "Area C",
        "note": "Small area north of mound E. 1 seal. Approximate box.",
        "centroid": [
          72.8644749331892,
          30.631470892183525
        ],
        "source": "Vats 1940, Pl. I (1999 ASI reprint scan)",
        "georef_method": "1000-ft grid scale + north-arrow rotation + OSM museum anchor",
        "uncertainty_m": 250
      },
      "geometry": {
        "type": "Polygon",
        "coordinates": [
          [
            [
              72.86421178134125,
              30.6316360875947
            ],
            [
              72.86467108966441,
              30.631656669037625
            ],
            [
              72.86473808503713,
              30.631305696772348
            ],
            [
              72.86427877671397,
              30.631285115329426
            ],
            [
              72.86421178134125,
              30.6316360875947
            ]
          ]
        ]
      }
    },
    {
      "type": "Feature",
      "properties": {
        "place_id": "harappa:area:D",
        "level": "area",
        "parent_id": "harappa",
        "label": "Area D",
        "note": "Small excavation area at the south foot of Mound AB. 20 seals. Polygon is a small approximate box around the 'D' label.",
        "centroid": [
          72.86406245546505,
          30.627771076440002
        ],
        "source": "Vats 1940, Pl. I (1999 ASI reprint scan)",
        "georef_method": "1000-ft grid scale + north-arrow rotation + OSM museum anchor",
        "uncertainty_m": 250
      },
      "geometry": {
        "type": "Polygon",
        "coordinates": [
          [
            [
              72.86381078632519,
              30.627936786387252
            ],
            [
              72.86427009464835,
              30.627957367830174
            ],
            [
              72.86433709002105,
              30.6276063955649
            ],
            [
              72.86383185086558,
              30.627583755977685
            ],
            [
              72.86381078632519,
              30.627936786387252
            ]
          ]
        ]
      }
    },
    {
      "type": "Feature",
      "properties": {
        "place_id": "harappa:area:E",
        "level": "area",
        "parent_id": "harappa",
        "label": "Mound E",
        "note": "Large east-west mound east of AB. No seals in the Vats tabulation carry mound=E; included for completeness.",
        "centroid": [
          72.86713773413953,
          30.62741331456
        ],
        "source": "Vats 1940, Pl. I (1999 ASI reprint scan)",
        "georef_method": "1000-ft grid scale + north-arrow rotation + OSM museum anchor",
        "uncertainty_m": 250
      },
      "geometry": {
        "type": "Polygon",
        "coordinates": [
          [
            [
              72.8644828971776,
              30.62825008287929
            ],
            [
              72.86629906592982,
              30.628685439060554
            ],
            [
              72.86859982045368,
              30.62871774019326
            ],
            [
              72.86990504742317,
              30.628068278342166
            ],
            [
              72.86963639852625,
              30.62678193278553
            ],
            [
              72.86784129431443,
              30.6259935461947
            ],
            [
              72.86577019395214,
              30.625971535783457
            ],
            [
              72.8645671553392,
              30.626837961241023
            ],
            [
              72.8644828971776,
              30.62825008287929
            ]
          ]
        ]
      }
    },
    {
      "type": "Feature",
      "properties": {
        "place_id": "harappa:area:F",
        "level": "area",
        "parent_id": "harappa",
        "label": "Mound F",
        "note": "Northwest mound; Great Granary complex. 265 seals.",
        "centroid": [
          72.86139934614728,
          30.632412697847535
        ],
        "source": "Vats 1940, Pl. I (1999 ASI reprint scan)",
        "georef_method": "1000-ft grid scale + north-arrow rotation + OSM museum anchor",
        "uncertainty_m": 250
      },
      "geometry": {
        "type": "Polygon",
        "coordinates": [
          [
            [
              72.85979086127733,
              30.633561833560766
            ],
            [
              72.86184932291538,
              30.63379566221775
            ],
            [
              72.86303129698791,
              30.633282267169754
            ],
            [
              72.86332835767878,
              30.6321628605806
            ],
            [
              72.86268152427485,
              30.63142592759708
            ],
            [
              72.86109079677612,
              30.63107146821919
            ],
            [
              72.85991724851975,
              30.63144365110336
            ],
            [
              72.85950536074809,
              30.632557912331784
            ],
            [
              72.85979086127733,
              30.633561833560766
            ]
          ]
        ]
      }
    },
    {
      "type": "Feature",
      "properties": {
        "place_id": "harappa:area:G",
        "level": "area",
        "parent_id": "harappa",
        "label": "Area G",
        "note": "Low flat area southeast of the site, near the Lahore-Multan road. 6 seals. Approximate box.",
        "centroid": [
          72.87207671829808,
          30.62543998800129
        ],
        "source": "Vats 1940, Pl. I (1999 ASI reprint scan)",
        "georef_method": "1000-ft grid scale + north-arrow rotation + OSM museum anchor",
        "uncertainty_m": 250
      },
      "geometry": {
        "type": "Polygon",
        "coordinates": [
          [
            [
              72.87131138418658,
              30.62572427052515
            ],
            [
              72.87268930915606,
              30.625786014853922
            ],
            [
              72.87284205240957,
              30.625155705477432
            ],
            [
              72.8714641274401,
              30.625093961148657
            ],
            [
              72.87131138418658,
              30.62572427052515
            ]
          ]
        ]
      }
    },
    {
      "type": "Feature",
      "properties": {
        "place_id": "harappa:area:H",
        "level": "area",
        "parent_id": "harappa",
        "label": "Area H (prehistoric cemetery)",
        "note": "Cemetery R 37 area between AB and E. 4 seals. Approximate box.",
        "centroid": [
          72.86453080633922,
          30.626482358151087
        ],
        "source": "Vats 1940, Pl. I (1999 ASI reprint scan)",
        "georef_method": "1000-ft grid scale + north-arrow rotation + OSM museum anchor",
        "uncertainty_m": 250
      },
      "geometry": {
        "type": "Polygon",
        "coordinates": [
          [
            [
              72.86400144575143,
              30.626671022273538
            ],
            [
              72.86492006239773,
              30.626712185159388
            ],
            [
              72.86506016692701,
              30.626293694028636
            ],
            [
              72.86414155028069,
              30.62625253114279
            ],
            [
              72.86400144575143,
              30.626671022273538
            ]
          ]
        ]
      }
    },
    {
      "type": "Feature",
      "properties": {
        "place_id": "harappa:area:J",
        "level": "area",
        "parent_id": "harappa",
        "label": "Area J",
        "note": "Small excavation area south of AB, east of D. 4 seals. Approximate box.",
        "centroid": [
          72.86454472920435,
          30.627792686955072
        ],
        "source": "Vats 1940, Pl. I (1999 ASI reprint scan)",
        "georef_method": "1000-ft grid scale + north-arrow rotation + OSM museum anchor",
        "uncertainty_m": 250
      },
      "geometry": {
        "type": "Polygon",
        "coordinates": [
          [
            [
              72.86431602548066,
              30.627959425974467
            ],
            [
              72.86472940297149,
              30.6279779492731
            ],
            [
              72.86479639834421,
              30.627626977007825
            ],
            [
              72.86433709002105,
              30.6276063955649
            ],
            [
              72.86431602548066,
              30.627959425974467
            ]
          ]
        ]
      }
    },
    {
      "type": "Feature",
      "properties": {
        "place_id": "harappa:area:P",
        "level": "area",
        "parent_id": "harappa",
        "label": "Great Granary area (Mound F)",
        "note": "Vats' 'Mound P' = the Great Granary excavation complex (trenches I-VI); confirmed by 'Mound P, Great Granary Area, Square J 9/20' (Vol I). 82 seals. Polygon covers the hatched excavation blocks on Pl. I; it lies inside F's footprint.",
        "centroid": [
          72.86117368441583,
          30.632255096732056
        ],
        "source": "Vats 1940, Pl. I (1999 ASI reprint scan)",
        "georef_method": "1000-ft grid scale + north-arrow rotation + OSM museum anchor",
        "uncertainty_m": 250
      },
      "geometry": {
        "type": "Polygon",
        "coordinates": [
          [
            [
              72.859952030347,
              30.632790312020447
            ],
            [
              72.86144056948919,
              30.632927807791866
            ],
            [
              72.86226963650319,
              30.6325401888255
            ],
            [
              72.8621969385032,
              30.631828982645636
            ],
            [
              72.86106130641956,
              30.631565710792586
            ],
            [
              72.86012162523284,
              30.631877578316303
            ],
            [
              72.859952030347,
              30.632790312020447
            ]
          ]
        ]
      }
    },
    {
      "type": "Feature",
      "properties": {
        "place_id": "harappa",
        "level": "site",
        "parent_id": null,
        "label": "Harappa",
        "note": "Archaeological site; fallback for records with no mapped area",
        "centroid": [
          72.86444,
          30.62919
        ],
        "source": "Vats 1940, Pl. I (1999 ASI reprint scan)",
        "georef_method": "mean of area centroids",
        "uncertainty_m": 1500
      },
      "geometry": null
    }
  ]
}